start=new Date('2023-04-23T00:00:00.000Z').valueOf();
sats=[{"REV_AT_EPOCH":"1878","EPHEMERIS_TYPE":"0","GP_ID":"230565008","TLE_LINE2":"2 54866  43.0040  79.0673 0001379 267.8694  92.1991 15.02537976 18786","REF_FRAME":"TEME","MEAN_MOTION":"15.02537976","COUNTRY_CODE":"US","PERIOD":"95.838","MEAN_MOTION_DOT":"0.00000623","FILE":"3892071","OBJECT_TYPE":"PAYLOAD","LAUNCH_DATE":"2022-12-28","CENTER_NAME":"EARTH","TLE_LINE1":"1 54866U 22177AY  23112.17699452  .00000623  00000-0  61187-4 0  9998","SEMIMAJOR_AXIS":"6937.210","OBJECT_NAME":"STARLINK-5398","ELEMENT_SET_NO":"999","PERIAPSIS":"558.119","RA_OF_ASC_NODE":"79.0673","EPOCH":"2023-04-22T04:14:52.326528","MEAN_MOTION_DDOT":"0.0000000000000","RCS_SIZE":"LARGE","OBJECT_ID":"2022-177AY","TIME_SYSTEM":"UTC","APOAPSIS":"560.032","ARG_OF_PERICENTER":"267.8694","MEAN_ANOMALY":"92.1991","MEAN_ELEMENT_THEORY":"SGP4","BSTAR":"0.00006118700000","SITE":"AFETR","DECAY_DATE":null,"NORAD_CAT_ID":"54866","INCLINATION":"43.0040","ECCENTRICITY":"0.00013790","CLASSIFICATION_TYPE":"U"},{"BSTAR":"0.00006490500000","SITE":"AFETR","MEAN_ANOMALY":"92.1733","MEAN_ELEMENT_THEORY":"SGP4","ARG_OF_PERICENTER":"267.8962","CLASSIFICATION_TYPE":"U","ECCENTRICITY":"0.00012940","DECAY_DATE":null,"NORAD_CAT_ID":"54867","INCLINATION":"43.0046","OBJECT_ID":"2022-177AZ","MEAN_MOTION_DDOT":"0.0000000000000","RCS_SIZE":"LARGE","PERIAPSIS":"558.196","EPOCH":"2023-04-22T04:30:51.711264","RA_OF_ASC_NODE":"79.1491","TIME_SYSTEM":"UTC","APOAPSIS":"559.991","CENTER_NAME":"EARTH","LAUNCH_DATE":"2022-12-28","OBJECT_TYPE":"PAYLOAD","ELEMENT_SET_NO":"999","OBJECT_NAME":"STARLINK-5396","SEMIMAJOR_AXIS":"6937.228","TLE_LINE1":"1 54867U 22177AZ  23112.18809851  .00000673  00000-0  64905-4 0  9992","REF_FRAME":"TEME","TLE_LINE2":"2 54867  43.0046  79.1491 0001294 267.8962  92.1733 15.02532141 18789","GP_ID":"230565759","REV_AT_EPOCH":"1878","EPHEMERIS_TYPE":"0","FILE":"3892071","COUNTRY_CODE":"US","PERIOD":"95.838","MEAN_MOTION_DOT":"0.00000673","MEAN_MOTION":"15.02532141"},{"TIME_SYSTEM":"UTC","APOAPSIS":"559.950","PERIAPSIS":"558.177","EPOCH":"2023-04-22T04:06:52.833312","RA_OF_ASC_NODE":"79.0233","OBJECT_ID":"2022-177BA","MEAN_MOTION_DDOT":"0.0000000000000","RCS_SIZE":"LARGE","ECCENTRICITY":"0.00012780","DECAY_DATE":null,"NORAD_CAT_ID":"54868","INCLINATION":"43.0043","CLASSIFICATION_TYPE":"U","ARG_OF_PERICENTER":"263.9070","SITE":"AFETR","BSTAR":"0.00004251100000","MEAN_ANOMALY":"96.1626","MEAN_ELEMENT_THEORY":"SGP4","MEAN_MOTION":"15.02541833","FILE":"3892071","COUNTRY_CODE":"US","PERIOD":"95.838","MEAN_MOTION_DOT":"0.00000371","REV_AT_EPOCH":"1878","EPHEMERIS_TYPE":"0","REF_FRAME":"TEME","GP_ID":"230566010","TLE_LINE2":"2 54868  43.0043  79.0233 0001278 263.9070  96.1626 15.02541833 18782","OBJECT_NAME":"STARLINK-5379","TLE_LINE1":"1 54868U 22177BA  23112.17144483  .00000371  00000-0  42511-4 0  9999","SEMIMAJOR_AXIS":"6937.199","ELEMENT_SET_NO":"999","OBJECT_TYPE":"PAYLOAD","LAUNCH_DATE":"2022-12-28","CENTER_NAME":"EARTH"},{"RCS_SIZE":"LARGE","MEAN_MOTION_DDOT":"0.0000000000000","OBJECT_ID":"2022-177BB","RA_OF_ASC_NODE":"79.0833","EPOCH":"2023-04-22T04:18:04.329792","PERIAPSIS":"558.054","APOAPSIS":"560.098","TIME_SYSTEM":"UTC","MEAN_ELEMENT_THEORY":"SGP4","MEAN_ANOMALY":"94.9338","SITE":"AFETR","BSTAR":"0.00001082600000","ARG_OF_PERICENTER":"265.1336","CLASSIFICATION_TYPE":"U","INCLINATION":"43.0040","DECAY_DATE":null,"NORAD_CAT_ID":"54869","ECCENTRICITY":"0.00014730","TLE_LINE2":"2 54869  43.0040  79.0833 0001473 265.1336  94.9338 15.02537746 18786","GP_ID":"230566244","REF_FRAME":"TEME","EPHEMERIS_TYPE":"0","REV_AT_EPOCH":"1878","PERIOD":"95.838","MEAN_MOTION_DOT":"-0.00000057","COUNTRY_CODE":"US","FILE":"3892071","MEAN_MOTION":"15.02537746","LAUNCH_DATE":"2022-12-28","CENTER_NAME":"EARTH","OBJECT_TYPE":"PAYLOAD","ELEMENT_SET_NO":"999","SEMIMAJOR_AXIS":"6937.211","TLE_LINE1":"1 54869U 22177BB  23112.17921678 -.00000057  00000-0  10826-4 0  9995","OBJECT_NAME":"STARLINK-5402"},{"OBJECT_NAME":"STARLINK-5401","TLE_LINE1":"1 54870U 22177BC  23112.24125293 -.00000739  00000-0 -39598-4 0  9999","SEMIMAJOR_AXIS":"6937.200","ELEMENT_SET_NO":"999","OBJECT_TYPE":"PAYLOAD","LAUNCH_DATE":"2022-12-28","CENTER_NAME":"EARTH","MEAN_MOTION":"15.02541474","FILE":"3892071","COUNTRY_CODE":"US","MEAN_MOTION_DOT":"-0.00000739","PERIOD":"95.838","REV_AT_EPOCH":"1879","EPHEMERIS_TYPE":"0","REF_FRAME":"TEME","GP_ID":"230565509","TLE_LINE2":"2 54870  43.0042  78.6864 0001460 267.1032  92.9643 15.02541474 18791","ECCENTRICITY":"0.00014600","DECAY_DATE":null,"NORAD_CAT_ID":"54870","INCLINATION":"43.0042","CLASSIFICATION_TYPE":"U","ARG_OF_PERICENTER":"267.1032","SITE":"AFETR","BSTAR":"-0.00003959800000","MEAN_ANOMALY":"92.9643","MEAN_ELEMENT_THEORY":"SGP4","APOAPSIS":"560.078","TIME_SYSTEM":"UTC","PERIAPSIS":"558.052","EPOCH":"2023-04-22T05:47:24.253152","RA_OF_ASC_NODE":"78.6864","OBJECT_ID":"2022-177BC","MEAN_MOTION_DDOT":"0.0000000000000","RCS_SIZE":"LARGE"},{"ARG_OF_PERICENTER":"258.1725","MEAN_ANOMALY":"101.8961","MEAN_ELEMENT_THEORY":"SGP4","SITE":"AFETR","BSTAR":"0.00006657300000","NORAD_CAT_ID":"54871","DECAY_DATE":null,"INCLINATION":"43.0041","ECCENTRICITY":"0.00014020","CLASSIFICATION_TYPE":"U","PERIAPSIS":"558.116","EPOCH":"2023-04-22T04:22:52.209408","RA_OF_ASC_NODE":"79.1061","MEAN_MOTION_DDOT":"0.0000000000000","RCS_SIZE":"LARGE","OBJECT_ID":"2022-177BD","TIME_SYSTEM":"UTC","APOAPSIS":"560.061","OBJECT_TYPE":"PAYLOAD","CENTER_NAME":"EARTH","LAUNCH_DATE":"2022-12-28","TLE_LINE1":"1 54871U 22177BD  23112.18254872  .00000696  00000-0  66573-4 0  9992","SEMIMAJOR_AXIS":"6937.224","OBJECT_NAME":"STARLINK-5397","ELEMENT_SET_NO":"999","REV_AT_EPOCH":"1878","EPHEMERIS_TYPE":"0","GP_ID":"230565259","TLE_LINE2":"2 54871  43.0041  79.1061 0001402 258.1725 101.8961 15.02533688 18781","REF_FRAME":"TEME","MEAN_MOTION":"15.02533688","COUNTRY_CODE":"US","PERIOD":"95.838","MEAN_MOTION_DOT":"0.00000696","FILE":"3892071"},{"ARG_OF_PERICENTER":"271.0699","MEAN_ANOMALY":"88.9967","MEAN_ELEMENT_THEORY":"SGP4","SITE":"AFETR","BSTAR":"0.00010286000000","DECAY_DATE":null,"NORAD_CAT_ID":"54872","INCLINATION":"43.0027","ECCENTRICITY":"0.00015350","CLASSIFICATION_TYPE":"U","PERIAPSIS":"557.996","EPOCH":"2023-04-22T05:36:13.241376","RA_OF_ASC_NODE":"78.6561","MEAN_MOTION_DDOT":"0.0000000000000","RCS_SIZE":"LARGE","OBJECT_ID":"2022-177BE","TIME_SYSTEM":"UTC","APOAPSIS":"560.126","OBJECT_TYPE":"PAYLOAD","CENTER_NAME":"EARTH","LAUNCH_DATE":"2022-12-28","TLE_LINE1":"1 54872U 22177BE  23112.23348659  .00001186  00000-0  10286-3 0  9990","SEMIMAJOR_AXIS":"6937.196","OBJECT_NAME":"STARLINK-5390","ELEMENT_SET_NO":"999","EPHEMERIS_TYPE":"0","REV_AT_EPOCH":"1879","TLE_LINE2":"2 54872  43.0027  78.6561 0001535 271.0699  88.9967 15.02542624 18798","GP_ID":"230566511","REF_FRAME":"TEME","MEAN_MOTION":"15.02542624","COUNTRY_CODE":"US","PERIOD":"95.838","MEAN_MOTION_DOT":"0.00001186","FILE":"3892071"},{"APOAPSIS":"560.105","TIME_SYSTEM":"UTC","RA_OF_ASC_NODE":"79.0059","EPOCH":"2023-04-22T04:03:41.176512","PERIAPSIS":"558.067","OBJECT_ID":"2022-177BF","RCS_SIZE":"LARGE","MEAN_MOTION_DDOT":"0.0000000000000","ECCENTRICITY":"0.00014690","DECAY_DATE":null,"NORAD_CAT_ID":"54873","INCLINATION":"43.0041","CLASSIFICATION_TYPE":"U","ARG_OF_PERICENTER":"263.3984","SITE":"AFETR","BSTAR":"0.00006244800000","MEAN_ELEMENT_THEORY":"SGP4","MEAN_ANOMALY":"96.6691","MEAN_MOTION":"15.02534660","FILE":"3892071","MEAN_MOTION_DOT":"0.00000640","PERIOD":"95.838","COUNTRY_CODE":"US","REV_AT_EPOCH":"1878","EPHEMERIS_TYPE":"0","REF_FRAME":"TEME","TLE_LINE2":"2 54873  43.0041  79.0059 0001469 263.3984  96.6691 15.02534660 18789","GP_ID":"230566745","OBJECT_NAME":"STARLINK-5091","TLE_LINE1":"1 54873U 22177BF  23112.16922658  .00000640  00000-0  62448-4 0  9992","SEMIMAJOR_AXIS":"6937.221","ELEMENT_SET_NO":"999","OBJECT_TYPE":"PAYLOAD","CENTER_NAME":"EARTH","LAUNCH_DATE":"2022-12-28"},{"APOAPSIS":"571.675","TIME_SYSTEM":"UTC","RA_OF_ASC_NODE":"176.5531","EPOCH":"2023-04-22T21:30:59.765184","PERIAPSIS":"567.413","RCS_SIZE":"LARGE","MEAN_MOTION_DDOT":"0.0000000000000","OBJECT_ID":"2023-010A","INCLINATION":"69.9996","DECAY_DATE":null,"NORAD_CAT_ID":"55269","ECCENTRICITY":"0.00030670","CLASSIFICATION_TYPE":"U","ARG_OF_PERICENTER":"263.0322","MEAN_ELEMENT_THEORY":"SGP4","MEAN_ANOMALY":"97.0488","SITE":"AFWTR","BSTAR":"-0.00005481100000","MEAN_MOTION":"14.99143300","PERIOD":"96.055","MEAN_MOTION_DOT":"-0.00000762","COUNTRY_CODE":"US","FILE":"3892285","REV_AT_EPOCH":"1551","EPHEMERIS_TYPE":"0","TLE_LINE2":"2 55269  69.9996 176.5531 0003067 263.0322  97.0488 14.99143300 15511","GP_ID":"230597466","REF_FRAME":"TEME","SEMIMAJOR_AXIS":"6947.679","TLE_LINE1":"1 55269U 23010A   23112.89652506 -.00000762  00000-0 -54811-4 0  9993","OBJECT_NAME":"STARLINK-5277","ELEMENT_SET_NO":"999","OBJECT_TYPE":"PAYLOAD","LAUNCH_DATE":"2023-01-19","CENTER_NAME":"EARTH"},{"MEAN_ANOMALY":"88.0298","MEAN_ELEMENT_THEORY":"SGP4","BSTAR":"0.00008125200000","SITE":"AFWTR","ARG_OF_PERICENTER":"272.0479","CLASSIFICATION_TYPE":"U","DECAY_DATE":null,"INCLINATION":"69.9986","NORAD_CAT_ID":"55270","ECCENTRICITY":"0.00033350","MEAN_MOTION_DDOT":"0.0000000000000","RCS_SIZE":"LARGE","OBJECT_ID":"2023-010B","PERIAPSIS":"567.235","EPOCH":"2023-04-22T21:48:41.153760","RA_OF_ASC_NODE":"176.5964","TIME_SYSTEM":"UTC","APOAPSIS":"571.869","LAUNCH_DATE":"2023-01-19","CENTER_NAME":"EARTH","OBJECT_TYPE":"PAYLOAD","ELEMENT_SET_NO":"999","TLE_LINE1":"1 55270U 23010B   23112.90880965  .00000896  00000-0  81252-4 0  9994","SEMIMAJOR_AXIS":"6947.687","OBJECT_NAME":"STARLINK-5301","GP_ID":"230598218","TLE_LINE2":"2 55270  69.9986 176.5964 0003335 272.0479  88.0298 14.99140834 15230","REF_FRAME":"TEME","REV_AT_EPOCH":"1523","EPHEMERIS_TYPE":"0","COUNTRY_CODE":"US","PERIOD":"96.055","MEAN_MOTION_DOT":"0.00000896","FILE":"3892285","MEAN_MOTION":"14.99140834"}];
